{
  "type": "FeatureCollection",
  "features": [
    {
      "type": "Feature",
      "properties": {
        "norad_id": 41434,
        "name": "BEIDOU-2 IGSO-6 (C13)",
        "group": "beidou",
        "lat": -55.35562281476226,
        "lon": -16.704450206013224,
        "alt_km": 35659.607470795585,
        "timestamp": "2025-12-03T10:52:57.718293+00:00",
        "meta_object_name": "BEIDOU-2 IGSO-6 (C13)",
        "meta_object_id": "2016-021A",
        "meta_epoch": "2025-12-01T15:57:35.287200",
        "meta_mean_motion": 1.00256562,
        "meta_eccentricity": 0.00591323,
        "meta_inclination": 59.9483,
        "meta_ra_of_asc_node": 40.0119,
        "meta_arg_of_pericenter": 231.2834,
        "meta_mean_anomaly": 130.8807,
        "meta_ephemeris_type": 0,
        "meta_classification_type": "U",
        "meta_norad_cat_id": 41434,
        "meta_element_set_no": 999,
        "meta_rev_at_epoch": 3550,
        "meta_bstar": 0,
        "meta_mean_motion_dot": -1.55e-06,
        "meta_mean_motion_ddot": 0,
        "tle_line1": "1 41434U 16021A   25335.66499175 -.00000155  00000+0  00000+0 0  9991",
        "tle_line2": "2 41434  59.9483  40.0119 0059132 231.2834 130.8807  1.00256562 35501"
      },
      "geometry": {
        "type": "Point",
        "coordinates": [
          -16.704450206013224,
          -55.35562281476226
        ]
      }
    },
    {
      "type": "Feature",
      "properties": {
        "norad_id": 41586,
        "name": "BEIDOU-2 G7 (C03)",
        "group": "beidou",
        "lat": -1.7020381127306592,
        "lon": -13.800084349247472,
        "alt_km": 35785.11791366477,
        "timestamp": "2025-12-03T10:52:57.718305+00:00",
        "meta_object_name": "BEIDOU-2 G7 (C03)",
        "meta_object_id": "2016-037A",
        "meta_epoch": "2025-12-03T02:17:48.835968",
        "meta_mean_motion": 1.00271793,
        "meta_eccentricity": 0.0004426,
        "meta_inclination": 1.7317,
        "meta_ra_of_asc_node": 67.6839,
        "meta_arg_of_pericenter": 4.7785,
        "meta_mean_anomaly": 144.6675,
        "meta_ephemeris_type": 0,
        "meta_classification_type": "U",
        "meta_norad_cat_id": 41586,
        "meta_element_set_no": 999,
        "meta_rev_at_epoch": 492,
        "meta_bstar": 0,
        "meta_mean_motion_dot": -3.35e-06,
        "meta_mean_motion_ddot": 0,
        "tle_line1": "1 41586U 16037A   25337.09570412 -.00000335  00000+0  00000+0 0  9999",
        "tle_line2": "2 41586   1.7317  67.6839 0004426   4.7785 144.6675  1.00271793  4929"
      },
      "geometry": {
        "type": "Point",
        "coordinates": [
          -13.800084349247472,
          -1.7020381127306592
        ]
      }
    },
    {
      "type": "Feature",
      "properties": {
        "norad_id": 43001,
        "name": "BEIDOU-3 M1 (C19)",
        "group": "beidou",
        "lat": -22.323505007859463,
        "lon": -94.71374843412062,
        "alt_km": 21533.98917868891,
        "timestamp": "2025-12-03T10:52:57.718317+00:00",
        "meta_object_name": "BEIDOU-3 M1 (C19)",
        "meta_object_id": "2017-069A",
        "meta_epoch": "2025-12-03T03:27:53.485056",
        "meta_mean_motion": 1.86230745,
        "meta_eccentricity": 0.0008837,
        "meta_inclination": 56.5186,
        "meta_ra_of_asc_node": 69.5514,
        "meta_arg_of_pericenter": 303.7187,
        "meta_mean_anomaly": 56.1997,
        "meta_ephemeris_type": 0,
        "meta_classification_type": "U",
        "meta_norad_cat_id": 43001,
        "meta_element_set_no": 999,
        "meta_rev_at_epoch": 5495,
        "meta_bstar": 0,
        "meta_mean_motion_dot": -4.9e-07,
        "meta_mean_motion_ddot": 0,
        "tle_line1": "1 43001U 17069A   25337.14436904 -.00000049  00000+0  00000+0 0  9994",
        "tle_line2": "2 43001  56.5186  69.5514 0008837 303.7187  56.1997  1.86230745 54952"
      },
      "geometry": {
        "type": "Point",
        "coordinates": [
          -94.71374843412062,
          -22.323505007859463
        ]
      }
    },
    {
      "type": "Feature",
      "properties": {
        "norad_id": 43002,
        "name": "BEIDOU-3 M2 (C20)",
        "group": "beidou",
        "lat": -50.90872552644696,
        "lon": -55.990137846088885,
        "alt_km": 21531.940783680107,
        "timestamp": "2025-12-03T10:52:57.718329+00:00",
        "meta_object_name": "BEIDOU-3 M2 (C20)",
        "meta_object_id": "2017-069B",
        "meta_epoch": "2025-12-01T11:19:28.056000",
        "meta_mean_motion": 1.86230616,
        "meta_eccentricity": 0.00061649,
        "meta_inclination": 56.5166,
        "meta_ra_of_asc_node": 69.6425,
        "meta_arg_of_pericenter": 332.397,
        "meta_mean_anomaly": 27.5733,
        "meta_ephemeris_type": 0,
        "meta_classification_type": "U",
        "meta_norad_cat_id": 43002,
        "meta_element_set_no": 999,
        "meta_rev_at_epoch": 5491,
        "meta_bstar": 0,
        "meta_mean_motion_dot": -4.1e-07,
        "meta_mean_motion_ddot": 0,
        "tle_line1": "1 43002U 17069B   25335.47185250 -.00000041  00000+0  00000+0 0  9996",
        "tle_line2": "2 43002  56.5166  69.6425 0006164 332.3970  27.5733  1.86230616 54915"
      },
      "geometry": {
        "type": "Point",
        "coordinates": [
          -55.990137846088885,
          -50.90872552644696
        ]
      }
    },
    {
      "type": "Feature",
      "properties": {
        "norad_id": 43107,
        "name": "BEIDOU-3 M7 (C27)",
        "group": "beidou",
        "lat": 45.274625613839795,
        "lon": -4.80735361535717,
        "alt_km": 21515.358090465248,
        "timestamp": "2025-12-03T10:52:57.718341+00:00",
        "meta_object_name": "BEIDOU-3 M7 (C27)",
        "meta_object_id": "2018-003A",
        "meta_epoch": "2025-12-02T06:56:05.635968",
        "meta_mean_motion": 1.86232265,
        "meta_eccentricity": 0.0002591,
        "meta_inclination": 54.5061,
        "meta_ra_of_asc_node": 309.1785,
        "meta_arg_of_pericenter": 70.8685,
        "meta_mean_anomaly": 289.1495,
        "meta_ephemeris_type": 0,
        "meta_classification_type": "U",
        "meta_norad_cat_id": 43107,
        "meta_element_set_no": 999,
        "meta_rev_at_epoch": 5368,
        "meta_bstar": 0,
        "meta_mean_motion_dot": -6.3e-07,
        "meta_mean_motion_ddot": 0,
        "tle_line1": "1 43107U 18003A   25336.28895412 -.00000063  00000+0  00000+0 0  9993",
        "tle_line2": "2 43107  54.5061 309.1785 0002591  70.8685 289.1495  1.86232265 53687"
      },
      "geometry": {
        "type": "Point",
        "coordinates": [
          -4.80735361535717,
          45.274625613839795
        ]
      }
    },
    {
      "type": "Feature",
      "properties": {
        "norad_id": 43108,
        "name": "BEIDOU-3 M8 (C28)",
        "group": "beidou",
        "lat": 53.77160724889543,
        "lon": 52.207519643165746,
        "alt_km": 21535.24641074337,
        "timestamp": "2025-12-03T10:52:57.718352+00:00",
        "meta_object_name": "BEIDOU-3 M8 (C28)",
        "meta_object_id": "2018-003B",
        "meta_epoch": "2025-12-01T03:50:13.118784",
        "meta_mean_motion": 1.86230755,
        "meta_eccentricity": 0.0004823,
        "meta_inclination": 54.4999,
        "meta_ra_of_asc_node": 309.2007,
        "meta_arg_of_pericenter": 273.5581,
        "meta_mean_anomaly": 86.3811,
        "meta_ephemeris_type": 0,
        "meta_classification_type": "U",
        "meta_norad_cat_id": 43108,
        "meta_element_set_no": 999,
        "meta_rev_at_epoch": 5367,
        "meta_bstar": 0,
        "meta_mean_motion_dot": -5.7e-07,
        "meta_mean_motion_ddot": 0,
        "tle_line1": "1 43108U 18003B   25335.15987406 -.00000057  00000+0  00000+0 0  9997",
        "tle_line2": "2 43108  54.4999 309.2007 0004823 273.5581  86.3811  1.86230755 53672"
      },
      "geometry": {
        "type": "Point",
        "coordinates": [
          52.207519643165746,
          53.77160724889543
        ]
      }
    },
    {
      "type": "Feature",
      "properties": {
        "norad_id": 43207,
        "name": "BEIDOU-3 M4 (C22)",
        "group": "beidou",
        "lat": 15.300494337598067,
        "lon": -120.8192851633203,
        "alt_km": 21535.856416280567,
        "timestamp": "2025-12-03T10:52:57.718364+00:00",
        "meta_object_name": "BEIDOU-3 M4 (C22)",
        "meta_object_id": "2018-018A",
        "meta_epoch": "2025-12-02T03:19:43.852800",
        "meta_mean_motion": 1.86230706,
        "meta_eccentricity": 0.00040749,
        "meta_inclination": 56.4768,
        "meta_ra_of_asc_node": 69.6557,
        "meta_arg_of_pericenter": 15.1369,
        "meta_mean_anomaly": 344.8773,
        "meta_ephemeris_type": 0,
        "meta_classification_type": "U",
        "meta_norad_cat_id": 43207,
        "meta_element_set_no": 999,
        "meta_rev_at_epoch": 5307,
        "meta_bstar": 0,
        "meta_mean_motion_dot": -4.5e-07,
        "meta_mean_motion_ddot": 0,
        "tle_line1": "1 43207U 18018A   25336.13870200 -.00000045  00000+0  00000+0 0  9992",
        "tle_line2": "2 43207  56.4768  69.6557 0004074  15.1369 344.8773  1.86230706 53076"
      },
      "geometry": {
        "type": "Point",
        "coordinates": [
          -120.8192851633203,
          15.300494337598067
        ]
      }
    }
  ]
}